{
    "links": {
        "self": "http://www.neowsapp.com/rest/v1/neo/3601277?api_key=iIulBulltgU6a56xZRHN4H3l9WmuAYTsLGpBGhQ2"
    },
    "id": "3601277",
    "neo_reference_id": "3601277",
    "name": "(2012 EJ5)",
    "designation": "2012 EJ5",
    "nasa_jpl_url": "http://ssd.jpl.nasa.gov/sbdb.cgi?sstr=3601277",
    "absolute_magnitude_h": 27.7,
    "estimated_diameter": {
        "kilometers": {
            "estimated_diameter_min": 0.0076657557,
            "estimated_diameter_max": 0.0171411509
        },
        "meters": {
            "estimated_diameter_min": 7.6657557353,
            "estimated_diameter_max": 17.1411509231
        },
        "miles": {
            "estimated_diameter_min": 0.0047632783,
            "estimated_diameter_max": 0.0106510141
        },
        "feet": {
            "estimated_diameter_min": 25.1501180466,
            "estimated_diameter_max": 56.2373735944
        }
    },
    "is_potentially_hazardous_asteroid": false,
    "close_approach_data": [
        {
            "close_approach_date": "1969-02-08",
            "close_approach_date_full": "1969-Feb-08 08:23",
            "epoch_date_close_approach": -28222620000,
            "relative_velocity": {
                "kilometers_per_second": "9.7015800187",
                "kilometers_per_hour": "34925.6880673175",
                "miles_per_hour": "21701.4643438285"
            },
            "miss_distance": {
                "astronomical": "0.1742409577",
                "lunar": "67.7797325453",
                "kilometers": "26066076.138680099",
                "miles": "16196708.6612154062"
            },
            "orbiting_body": "Earth"
        },
        {
            "close_approach_date": "1978-01-24",
            "close_approach_date_full": "1978-Jan-24 23:59",
            "epoch_date_close_approach": 254534340000,
            "relative_velocity": {
                "kilometers_per_second": "17.1870858315",
                "kilometers_per_hour": "61873.5089934022",
                "miles_per_hour": "38445.7922964837"
            },
            "miss_distance": {
                "astronomical": "0.4217286773",
                "lunar": "164.0524554697",
                "kilometers": "63089711.841997351",
                "miles": "39202129.1117354038"
            },
            "orbiting_body": "Earth"
        },
        {
            "close_approach_date": "1994-05-11",
            "close_approach_date_full": "1994-May-11 17:59",
            "epoch_date_close_approach": 768679140000,
            "relative_velocity": {
                "kilometers_per_second": "13.9058536625",
                "kilometers_per_hour": "50061.0731851094",
                "miles_per_hour": "31106.0040577143"
            },
            "miss_distance": {
                "astronomical": "0.3127776723",
                "lunar": "121.6705145247",
                "kilometers": "46790873.559638001",
                "miles": "29074500.6274503738"
            },
            "orbiting_body": "Earth"
        },
        {
            "close_approach_date": "2012-03-13",
            "close_approach_date_full": "2012-Mar-13 08:41",
            "epoch_date_close_approach": 1331628060000,
            "relative_velocity": {
                "kilometers_per_second": "4.2960857727",
                "kilometers_per_hour": "15465.9087816622",
                "miles_per_hour": "9609.9142649167"
            },
            "miss_distance": {
                "astronomical": "0.0141936972",
                "lunar": "5.5213482108",
                "kilometers": "2123346.868544964",
                "miles": "1319386.5633459432"
            },
            "orbiting_body": "Earth"
        },
        {
            "close_approach_date": "2021-01-26",
            "close_approach_date_full": "2021-Jan-26 12:41",
            "epoch_date_close_approach": 1611664860000,
            "relative_velocity": {
                "kilometers_per_second": "16.6906810855",
                "kilometers_per_hour": "60086.4519079303",
                "miles_per_hour": "37335.3845202359"
            },
            "miss_distance": {
                "astronomical": "0.4053929459",
                "lunar": "157.6978559551",
                "kilometers": "60645921.219665233",
                "miles": "37683628.0328488954"
            },
            "orbiting_body": "Earth"
        }
    ],
    "orbital_data": {
        "orbit_id": "5",
        "orbit_determination_date": "2017-04-06 08:50:36",
        "first_observation_date": "2012-03-13",
        "last_observation_date": "2012-03-17",
        "data_arc_in_days": 4,
        "observations_used": 41,
        "orbit_uncertainty": "7",
        "minimum_orbit_intersection": ".0108816",
        "jupiter_tisserand_invariant": "4.543",
        "epoch_osculation": "2459000.5",
        "eccentricity": ".3162032859826341",
        "semi_major_axis": "1.4723228072923",
        "inclination": ".1869660167996961",
        "ascending_node_longitude": "36.50088638374508",
        "orbital_period": "652.5337611507223",
        "perihelion_distance": "1.006769497599298",
        "perihelion_argument": "140.982319465253",
        "aphelion_distance": "1.937876116985302",
        "perihelion_time": "2459266.548571728639",
        "mean_anomaly": "213.2221755799891",
        "mean_motion": ".5516955925240582",
        "equinox": "J2000",
        "orbit_class": {
            "orbit_class_type": "APO",
            "orbit_class_description": "Near-Earth asteroid orbits which cross the Earth’s orbit similar to that of 1862 Apollo",
            "orbit_class_range": "a (semi-major axis) > 1.0 AU; q (perihelion) < 1.017 AU"
        }
    },
    "is_sentry_object": false
}